[{"OBJECT_NAME":"STARLINK-35387","OBJECT_ID":"2025-224AD","EPOCH":"2026-03-09T23:24:46.997280","MEAN_MOTION":15.30207114,"ECCENTRICITY":0.00010117,"INCLINATION":53.1607,"RA_OF_ASC_NODE":10.3269,"ARG_OF_PERICENTER":99.2822,"MEAN_ANOMALY":260.8294,"EPHEMERIS_TYPE":0,"CLASSIFICATION_TYPE":"U","NORAD_CAT_ID":65909,"ELEMENT_SET_NO":999,"REV_AT_EPOCH":2486,"BSTAR":0.0010077245,"MEAN_MOTION_DOT":0.00029612,"MEAN_MOTION_DDOT":0},{"OBJECT_NAME":"CZ-4B R\/B","OBJECT_ID":"2004-035C","EPOCH":"2026-03-09T23:23:31.358400","MEAN_MOTION":15.2906998,"ECCENTRICITY":0.00309852,"INCLINATION":97.3501,"RA_OF_ASC_NODE":103.2135,"ARG_OF_PERICENTER":330.5139,"MEAN_ANOMALY":29.4353,"EPHEMERIS_TYPE":0,"CLASSIFICATION_TYPE":"U","NORAD_CAT_ID":28415,"ELEMENT_SET_NO":999,"REV_AT_EPOCH":17995,"BSTAR":0.00034109099,"MEAN_MOTION_DOT":9.691e-5,"MEAN_MOTION_DDOT":0}]
